{
  "type": "FeatureCollection",
  "columns": {},
  "features": [
    {
      "type": "Feature",
      "geometry": {
        "type": "Polygon",
        "coordinates": [
          [
            [
              120.8095222804117,
              24.3434102931388
            ],
            [
              120.8120114061889,
              24.34286290662968
            ],
            [
              120.81338465923051,
              24.346538270313527
            ],
            [
              120.81072394568804,
              24.346538270926654
            ],
            [
              120.8095222804117,
              24.3434102931388
            ]
          ]
        ]
      },
      "id": "1_1_1_1_2_00000000000000000000",
      "properties": {
        "landcover": 0
      }
    },
    {
      "type": "Feature",
      "geometry": {
        "type": "Polygon",
        "coordinates": [
          [
            [
              120.78480307483953,
              24.341142488291766
            ],
            [
              120.78677713903494,
              24.341064286780643
            ],
            [
              120.78720634787086,
              24.342471887626555
            ],
            [
              120.78480307483953,
              24.34278468877114
            ],
            [
              120.78480307483953,
              24.341142488291766
            ]
          ]
        ]
      },
      "id": "1_1_1_1_2_00000000000000000001",
      "properties": {
        "landcover": 0
      }
    },
    {
      "type": "Feature",
      "geometry": {
        "type": "Polygon",
        "coordinates": [
          [
            [
              120.54207366459732,
              24.311646098551673
            ],
            [
              120.54035697946219,
              24.308517311074283
            ],
            [
              120.54482018969513,
              24.307265824610052
            ],
            [
              120.54516353410308,
              24.316652097886646
            ],
            [
              120.54276027946852,
              24.316339191891622
            ],
            [
              120.54207366459732,
              24.311646098551673
            ]
          ]
        ]
      },
      "id": "1_1_1_1_2_00000000000000000002",
      "properties": {
        "landcover": 0
      }
    },
    {
      "type": "Feature",
      "geometry": {
        "type": "Polygon",
        "coordinates": [
          [
            [
              120.51953066801364,
              24.162608410597723
            ],
            [
              120.51970233047564,
              24.156343355644854
            ],
            [
              120.52193392146961,
              24.15665658608391
            ],
            [
              120.52159060231831,
              24.163234895025596
            ],
            [
              120.51901567924229,
              24.170752493774117
            ],
            [
              120.51729912285192,
              24.170439212581055
            ],
            [
              120.51953066801364,
              24.162608410597723
            ]
          ]
        ]
      },
      "id": "1_1_1_1_2_00000000000000000003",
      "properties": {
        "landcover": 0
      }
    },
    {
      "type": "Feature",
      "geometry": {
        "type": "Polygon",
        "coordinates": [
          [
            [
              120.52210558069883,
              24.145692094345854
            ],
            [
              120.52450887350601,
              24.14412572146378
            ],
            [
              120.52279221530634,
              24.148198344730307
            ],
            [
              120.52141894239628,
              24.15007800123788
            ],
            [
              120.52210558069883,
              24.145692094345854
            ]
          ]
        ]
      },
      "id": "1_1_1_1_2_00000000000000000004",
      "properties": {
        "landcover": 0
      }
    },
    {
      "type": "Feature",
      "geometry": {
        "type": "Polygon",
        "coordinates": [
          [
            [
              120.4287273727307,
              24.103707332379646
            ],
            [
              120.43130226268954,
              24.102453787287484
            ],
            [
              120.4330189153357,
              24.111541819659845
            ],
            [
              120.4302723656246,
              24.111855167935378
            ],
            [
              120.4287273727307,
              24.103707332379646
            ]
          ]
        ]
      },
      "id": "1_1_1_1_2_00000000000000000005",
      "properties": {
        "landcover": 0
      }
    },
    {
      "type": "Feature",
      "geometry": {
        "type": "Polygon",
        "coordinates": [
          [
            [
              121.29712286125971,
              24.807713454370482
            ],
            [
              121.30124276003885,
              24.80677854087161
            ],
            [
              121.30982576672805,
              24.80771346279831
            ],
            [
              121.31016914724145,
              24.81456941313
            ],
            [
              121.30707921012,
              24.81223219656535
            ],
            [
              121.29712286125971,
              24.809583305913765
            ],
            [
              121.29712286125971,
              24.807713454370482
            ]
          ]
        ]
      },
      "id": "1_1_1_1_2_00000000000000000006",
      "properties": {
        "landcover": 0
      }
    },
    {
      "type": "Feature",
      "geometry": {
        "type": "Polygon",
        "coordinates": [
          [
            [
              121.26553714502798,
              24.808492588950962
            ],
            [
              121.26416388073092,
              24.805999462423316
            ],
            [
              121.25832739427099,
              24.804285363796485
            ],
            [
              121.26450722013685,
              24.804441205355587
            ],
            [
              121.26811204880356,
              24.806622758776435
            ],
            [
              121.26776880722957,
              24.809115888217296
            ],
            [
              121.26519380862594,
              24.809894957922538
            ],
            [
              121.26553714502798,
              24.808492588950962
            ]
          ]
        ]
      },
      "id": "1_1_1_1_2_00000000000000000007",
      "properties": {
        "landcover": 0
      }
    },
    {
      "type": "Feature",
      "geometry": {
        "type": "Polygon",
        "coordinates": [
          [
            [
              120.71430154930215,
              24.602195062413106
            ],
            [
              120.71018170292696,
              24.594078747705662
            ],
            [
              120.70297193001713,
              24.584088686181143
            ],
            [
              120.70880844909057,
              24.581591033919747
            ],
            [
              120.71430154930215,
              24.59563961984785
            ],
            [
              120.72048137102271,
              24.605628756231223
            ],
            [
              120.71704818424477,
              24.60750158079614
            ],
            [
              120.71430154930215,
              24.602195062413106
            ]
          ]
        ]
      },
      "id": "1_1_1_1_2_00000000000000000008",
      "properties": {
        "landcover": 0
      }
    },
    {
      "type": "Feature",
      "geometry": {
        "type": "Polygon",
        "coordinates": [
          [
            [
              120.75515694932194,
              24.64120850171102
            ],
            [
              120.75378366477764,
              24.634655063515915
            ],
            [
              120.75447035278985,
              24.631222207006505
            ],
            [
              120.75790356058772,
              24.636215400207227
            ],
            [
              120.76305341366971,
              24.64464105018772
            ],
            [
              120.7568735994357,
              24.646513308832738
            ],
            [
              120.75515694932194,
              24.64120850171102
            ]
          ]
        ]
      },
      "id": "1_1_1_1_2_00000000000000000009",
      "properties": {
        "landcover": 0
      }
    },
    {
      "type": "Feature",
      "geometry": {
        "type": "Polygon",
        "coordinates": [
          [
            [
              120.86605027286565,
              24.73323174628391
            ],
            [
              120.8602137077287,
              24.726995057373774
            ],
            [
              120.85643717035555,
              24.718263128581285
            ],
            [
              120.85575052269816,
              24.705475956429222
            ],
            [
              120.86055706337879,
              24.708906829243194
            ],
            [
              120.86124368418872,
              24.721069851957658
            ],
            [
              120.86673686297678,
              24.728242441458793
            ],
            [
              120.87531992286634,
              24.73510272744465
            ],
            [
              120.87360334137935,
              24.738532716013992
            ],
            [
              120.86605027286565,
              24.73323174628391
            ]
          ]
        ]
      },
      "id": "1_1_1_1_2_0000000000000000000a",
      "properties": {
        "landcover": 0
      }
    },
    {
      "type": "Feature",
      "geometry": {
        "type": "Polygon",
        "coordinates": [
          [
            [
              120.90241559881746,
              24.59184911822465
            ],
            [
              120.90275892390083,
              24.589819915616346
            ],
            [
              120.9053338313129,
              24.58907841859651
            ],
            [
              120.90580589179206,
              24.590873494530545
            ],
            [
              120.9028018394685,
              24.5927856201994
            ],
            [
              120.90241559881746,
              24.59184911822465
            ]
          ]
        ]
      },
      "id": "1_1_1_1_2_0000000000000000000b",
      "properties": {
        "landcover": 0
      }
    },
    {
      "type": "Feature",
      "geometry": {
        "type": "Polygon",
        "coordinates": [
          [
            [
              120.76493391789145,
              23.815753557437873
            ],
            [
              120.77901018350536,
              23.81418317393342
            ],
            [
              120.78347333841232,
              23.818266243793786
            ],
            [
              120.76527727540555,
              23.820150787505433
            ],
            [
              120.76493391789145,
              23.815753557437873
            ]
          ]
        ]
      },
      "id": "1_1_1_1_2_0000000000000000000c",
      "properties": {
        "landcover": 0
      }
    },
    {
      "type": "Feature",
      "geometry": {
        "type": "Polygon",
        "coordinates": [
          [
            [
              120.91324940525926,
              23.861602393446418
            ],
            [
              120.91736922785984,
              23.856421673261988
            ],
            [
              120.92801221854572,
              23.854066726638678
            ],
            [
              120.92698227814,
              23.864114146913387
            ],
            [
              120.91633928523429,
              23.863486268708332
            ],
            [
              120.91324940525926,
              23.861602393446418
            ]
          ]
        ]
      },
      "id": "1_1_1_1_2_0000000000000000000d",
      "properties": {
        "landcover": 0
      }
    },
    {
      "type": "Feature",
      "geometry": {
        "type": "Polygon",
        "coordinates": [
          [
            [
              120.57012391901999,
              23.294795541944698
            ],
            [
              120.57063887665838,
              23.288961644774307
            ],
            [
              120.57063887665838,
              23.27934313100585
            ],
            [
              120.57527375260996,
              23.284388993897743
            ],
            [
              120.5764753854908,
              23.29921015083782
            ],
            [
              120.57269886194466,
              23.29921010958049
            ],
            [
              120.57012391901999,
              23.294795541944698
            ]
          ]
        ]
      },
      "id": "1_1_1_1_2_0000000000000000000e",
      "properties": {
        "landcover": 0
      }
    },
    {
      "type": "Feature",
      "geometry": {
        "type": "Polygon",
        "coordinates": [
          [
            [
              120.55295779138551,
              23.25553038373575
            ],
            [
              120.5517561116144,
              23.253006936184658
            ],
            [
              120.5517561116144,
              23.2478021456666
            ],
            [
              120.55621936109097,
              23.24890619153925
            ],
            [
              120.55742099867439,
              23.256003542839593
            ],
            [
              120.55347273079063,
              23.259000116126682
            ],
            [
              120.55295779138551,
              23.25553038373575
            ]
          ]
        ]
      },
      "id": "1_1_1_1_2_0000000000000000000f",
      "properties": {
        "landcover": 0
      }
    },
    {
      "type": "Feature",
      "geometry": {
        "type": "Polygon",
        "coordinates": [
          [
            [
              121.33791068506615,
              25.021809923052547
            ],
            [
              121.34070014921703,
              25.022276520626026
            ],
            [
              121.34057143706163,
              25.02446285062549
            ],
            [
              121.33726693297237,
              25.02356849863953
            ],
            [
              121.33791068506615,
              25.021809923052547
            ]
          ]
        ]
      },
      "id": "1_1_1_2_00000000000000000000",
      "properties": {
        "landcover": 1
      }
    },
    {
      "type": "Feature",
      "geometry": {
        "type": "Polygon",
        "coordinates": [
          [
            [
              121.23690755608055,
              25.052424040786693
            ],
            [
              121.23999741588867,
              25.054756689596662
            ],
            [
              121.23862420336924,
              25.056000739624135
            ],
            [
              121.23587755572598,
              25.053823615763626
            ],
            [
              121.23690755608055,
              25.052424040786693
            ]
          ]
        ]
      },
      "id": "1_1_1_2_00000000000000000001",
      "properties": {
        "landcover": 1
      }
    },
    {
      "type": "Feature",
      "geometry": {
        "type": "Polygon",
        "coordinates": [
          [
            [
              121.10404160854155,
              25.062842900432557
            ],
            [
              121.10678824362432,
              25.06346485389293
            ],
            [
              121.10644488489712,
              25.0653308033359
            ],
            [
              121.10335496178425,
              25.064553374400294
            ],
            [
              121.10404160854155,
              25.062842900432557
            ]
          ]
        ]
      },
      "id": "1_1_1_2_00000000000000000002",
      "properties": {
        "landcover": 1
      }
    },
    {
      "type": "Feature",
      "geometry": {
        "type": "Polygon",
        "coordinates": [
          [
            [
              121.32136494764733,
              25.03951589437241
            ],
            [
              121.32634311402923,
              25.040293498656833
            ],
            [
              121.32685811175246,
              25.042937488272234
            ],
            [
              121.32067833854946,
              25.04184876480387
            ],
            [
              121.32136494764733,
              25.03951589437241
            ]
          ]
        ]
      },
      "id": "1_1_1_2_00000000000000000003",
      "properties": {
        "landcover": 1
      }
    },
    {
      "type": "Feature",
      "geometry": {
        "type": "Polygon",
        "coordinates": [
          [
            [
              121.12773947972362,
              24.869230200984415
            ],
            [
              121.12919859688755,
              24.86938590377669
            ],
            [
              121.12876945691583,
              24.872345013559915
            ],
            [
              121.12688118775135,
              24.872033534248548
            ],
            [
              121.12773947972362,
              24.869230200984415
            ]
          ]
        ]
      },
      "id": "1_1_1_2_00000000000000000004",
      "properties": {
        "landcover": 1
      }
    },
    {
      "type": "Feature",
      "geometry": {
        "type": "Polygon",
        "coordinates": [
          [
            [
              121.16842319559667,
              24.85653644229129
            ],
            [
              121.17280057213392,
              24.858327674266555
            ],
            [
              121.17348725621252,
              24.861598527136717
            ],
            [
              121.16850901263645,
              24.860352460751642
            ],
            [
              121.16842319559667,
              24.85653644229129
            ]
          ]
        ]
      },
      "id": "1_1_1_2_00000000000000000005",
      "properties": {
        "landcover": 1
      }
    },
    {
      "type": "Feature",
      "geometry": {
        "type": "Polygon",
        "coordinates": [
          [
            [
              121.37689352020281,
              24.959307527996952
            ],
            [
              121.38139966173314,
              24.960863843862377
            ],
            [
              121.37955434216224,
              24.96245899185521
            ],
            [
              121.37547733305114,
              24.95961879833946
            ],
            [
              121.37689352020281,
              24.959307527996952
            ]
          ]
        ]
      },
      "id": "1_1_1_2_00000000000000000006",
      "properties": {
        "landcover": 1
      }
    },
    {
      "type": "Feature",
      "geometry": {
        "type": "Polygon",
        "coordinates": [
          [
            [
              121.36092905605274,
              24.967555627871565
            ],
            [
              121.36075735323703,
              24.96631069003342
            ],
            [
              121.36230232048676,
              24.966544150620777
            ],
            [
              121.36217363216247,
              24.96833373853007
            ],
            [
              121.3592983053332,
              24.968333707766583
            ],
            [
              121.36092905605274,
              24.967555627871565
            ]
          ]
        ]
      },
      "id": "1_1_1_2_00000000000000000007",
      "properties": {
        "landcover": 1
      }
    },
    {
      "type": "Feature",
      "geometry": {
        "type": "Polygon",
        "coordinates": [
          [
            [
              121.14720508707083,
              25.075796293578666
            ],
            [
              121.15171120115677,
              25.0767681097765
            ],
            [
              121.15149662815996,
              25.07828399859115
            ],
            [
              121.14647550971536,
              25.077273427102483
            ],
            [
              121.14720508707083,
              25.075796293578666
            ]
          ]
        ]
      },
      "id": "1_1_1_2_00000000000000000008",
      "properties": {
        "landcover": 1
      }
    },
    {
      "type": "Feature",
      "geometry": {
        "type": "Polygon",
        "coordinates": [
          [
            [
              121.39912899093224,
              25.059850231433273
            ],
            [
              121.40522297269644,
              25.059228212282207
            ],
            [
              121.40376387207006,
              25.06280469327841
            ],
            [
              121.39921481405544,
              25.06342669280488
            ],
            [
              121.39912899093224,
              25.059850231433273
            ]
          ]
        ]
      },
      "id": "1_1_1_2_00000000000000000009",
      "properties": {
        "landcover": 1
      }
    },
    {
      "type": "Feature",
      "geometry": {
        "type": "Polygon",
        "coordinates": [
          [
            [
              121.39022842235758,
              25.082989669888196
            ],
            [
              121.39074339960972,
              25.082834182519836
            ],
            [
              121.39109744514656,
              25.08369904212873
            ],
            [
              121.3904751825757,
              25.083805938241365
            ],
            [
              121.39022842235758,
              25.082989669888196
            ]
          ]
        ]
      },
      "id": "1_1_1_2_0000000000000000000a",
      "properties": {
        "landcover": 1
      }
    },
    {
      "type": "Feature",
      "geometry": {
        "type": "Polygon",
        "coordinates": [
          [
            [
              121.41197977345593,
              25.054223571868622
            ],
            [
              121.41901793593448,
              25.05640065800919
            ],
            [
              121.41764464398072,
              25.05873320121978
            ],
            [
              121.41112154658292,
              25.056400610985257
            ],
            [
              121.41197977345593,
              25.054223571868622
            ]
          ]
        ]
      },
      "id": "1_1_1_2_0000000000000000000b",
      "properties": {
        "landcover": 1
      }
    },
    {
      "type": "Feature",
      "geometry": {
        "type": "Polygon",
        "coordinates": [
          [
            [
              121.30726635439228,
              25.057178197196375
            ],
            [
              121.31224459654536,
              25.057333628314474
            ],
            [
              121.31190122211513,
              25.059199752493143
            ],
            [
              121.30709474729576,
              25.059355190892802
            ],
            [
              121.30726635439228,
              25.057178197196375
            ]
          ]
        ]
      },
      "id": "1_1_1_2_0000000000000000000c",
      "properties": {
        "landcover": 1
      }
    },
    {
      "type": "Feature",
      "geometry": {
        "type": "Polygon",
        "coordinates": [
          [
            [
              121.33524716720842,
              25.113302825263528
            ],
            [
              121.33782211155084,
              25.113147391822373
            ],
            [
              121.33868044280868,
              25.114546276146783
            ],
            [
              121.33490386028,
              25.116722350695927
            ],
            [
              121.33524716720842,
              25.113302825263528
            ]
          ]
        ]
      },
      "id": "1_1_1_2_0000000000000000000d",
      "properties": {
        "landcover": 1
      }
    },
    {
      "type": "Feature",
      "geometry": {
        "type": "Polygon",
        "coordinates": [
          [
            [
              121.41197977345593,
              25.090918272677076
            ],
            [
              121.41455476478295,
              25.08982999127189
            ],
            [
              121.41661466433368,
              25.093716552257252
            ],
            [
              121.41403971876912,
              25.093716515190444
            ],
            [
              121.41197977345593,
              25.090918272677076
            ]
          ]
        ]
      },
      "id": "1_1_1_2_0000000000000000000e",
      "properties": {
        "landcover": 1
      }
    },
    {
      "type": "Feature",
      "geometry": {
        "type": "Polygon",
        "coordinates": [
          [
            [
              120.75698917016545,
              23.659814175503282
            ],
            [
              120.77896187685828,
              23.62458939376207
            ],
            [
              120.82153384985465,
              23.614523442236546
            ],
            [
              120.81741405383566,
              23.702574359273314
            ],
            [
              120.77072211826344,
              23.687484093747923
            ],
            [
              120.75698917016545,
              23.659814175503282
            ]
          ]
        ]
      },
      "id": "1_1_1_2_0000000000000000000f",
      "properties": {
        "landcover": 1
      }
    },
    {
      "type": "Feature",
      "geometry": {
        "type": "Polygon",
        "coordinates": [
          [
            [
              120.82290717227893,
              24.103080656693916
            ],
            [
              120.86822576122775,
              24.100573488509884
            ],
            [
              120.93963692984299,
              24.084275937374297
            ],
            [
              120.94787666746801,
              24.10684123658533
            ],
            [
              120.92453068377738,
              24.14694766332371
            ],
            [
              120.84762637598469,
              24.139428673133338
            ],
            [
              120.82290717227893,
              24.103080656693916
            ]
          ]
        ]
      },
      "id": "1_1_1_2_00000000000000000010",
      "properties": {
        "landcover": 1
      }
    },
    {
      "type": "Feature",
      "geometry": {
        "type": "Polygon",
        "coordinates": [
          [
            [
              121.19918891307337,
              23.661072029949246
            ],
            [
              121.2101752099132,
              23.637170742460714
            ],
            [
              121.24313426837517,
              23.62458936982874
            ],
            [
              121.25549387966377,
              23.6862265038149
            ],
            [
              121.19918891307337,
              23.67993831483592
            ],
            [
              121.19918891307337,
              23.661072029949246
            ]
          ]
        ]
      },
      "id": "1_1_1_2_00000000000000000011",
      "properties": {
        "landcover": 1
      }
    },
    {
      "type": "Feature",
      "geometry": {
        "type": "Polygon",
        "coordinates": [
          [
            [
              121.09481880863895,
              23.835795502386915
            ],
            [
              121.14425729441983,
              23.818208061729948
            ],
            [
              121.18545605176533,
              23.809413445501427
            ],
            [
              121.18270939362185,
              23.84082000557453
            ],
            [
              121.10855171223086,
              23.855892514816574
            ],
            [
              121.09481880863895,
              23.835795502386915
            ]
          ]
        ]
      },
      "id": "1_1_1_2_00000000000000000012",
      "properties": {
        "landcover": 1
      }
    },
    {
      "type": "Feature",
      "geometry": {
        "type": "Polygon",
        "coordinates": [
          [
            [
              121.36398380578119,
              23.968879925830887
            ],
            [
              121.39144965789171,
              23.943780169653557
            ],
            [
              121.41891547154562,
              23.91114314421846
            ],
            [
              121.4628607901691,
              23.913653963357305
            ],
            [
              121.44775461362772,
              23.97766371967391
            ],
            [
              121.38320988532777,
              24.000247802106948
            ],
            [
              121.36398380578119,
              23.968879925830887
            ]
          ]
        ]
      },
      "id": "1_1_1_2_00000000000000000013",
      "properties": {
        "landcover": 1
      }
    },
    {
      "type": "Feature",
      "geometry": {
        "type": "Polygon",
        "coordinates": [
          [
            [
              121.09597245165334,
              25.006229994518453
            ],
            [
              121.10129394861588,
              25.002340727506
            ],
            [
              121.10404055929445,
              25.006541143905775
            ],
            [
              121.09974897428646,
              25.010430366495264
            ],
            [
              121.09597245165334,
              25.006229994518453
            ]
          ]
        ]
      },
      "id": "1_1_2_00000000000000000000",
      "properties": {
        "landcover": 2
      }
    },
    {
      "type": "Feature",
      "geometry": {
        "type": "Polygon",
        "coordinates": [
          [
            [
              121.19931262531676,
              24.98335908545502
            ],
            [
              121.20514905793752,
              24.985848682720498
            ],
            [
              121.20240250638581,
              24.991605545728397
            ],
            [
              121.19828264705916,
              24.990205286509557
            ],
            [
              121.19931262531676,
              24.98335908545502
            ]
          ]
        ]
      },
      "id": "1_1_2_00000000000000000001",
      "properties": {
        "landcover": 2
      }
    },
    {
      "type": "Feature",
      "geometry": {
        "type": "Polygon",
        "coordinates": [
          [
            [
              121.05666197947477,
              24.94554268503451
            ],
            [
              121.06301348759324,
              24.9460096446434
            ],
            [
              121.06009519783058,
              24.95285787033924
            ],
            [
              121.05460208891374,
              24.951301496048163
            ],
            [
              121.05666197947477,
              24.94554268503451
            ]
          ]
        ]
      },
      "id": "1_1_2_00000000000000000002",
      "properties": {
        "landcover": 2
      }
    },
    {
      "type": "Feature",
      "geometry": {
        "type": "Polygon",
        "coordinates": [
          [
            [
              121.27338444885157,
              25.0004738482848
            ],
            [
              121.28007929839315,
              25.001096081553833
            ],
            [
              121.2785342930757,
              25.007318988017573
            ],
            [
              121.2726978208401,
              25.006696750099632
            ],
            [
              121.27338444885157,
              25.0004738482848
            ]
          ]
        ]
      },
      "id": "1_1_2_00000000000000000003",
      "properties": {
        "landcover": 2
      }
    },
    {
      "type": "Feature",
      "geometry": {
        "type": "Polygon",
        "coordinates": [
          [
            [
              121.16935765418295,
              25.03174091279936
            ],
            [
              121.17485082530658,
              25.034696089925628
            ],
            [
              121.17073097076133,
              25.039828615291295
            ],
            [
              121.16489450609781,
              25.038428856215322
            ],
            [
              121.16935765418295,
              25.03174091279936
            ]
          ]
        ]
      },
      "id": "1_1_2_00000000000000000004",
      "properties": {
        "landcover": 2
      }
    },
    {
      "type": "Feature",
      "geometry": {
        "type": "Polygon",
        "coordinates": [
          [
            [
              120.43119984478389,
              23.920465014892798
            ],
            [
              120.44682110709142,
              23.920151136388146
            ],
            [
              120.44682110709142,
              23.928153714695014
            ],
            [
              120.43085654640366,
              23.92940896560033
            ],
            [
              120.43119984478389,
              23.920465014892798
            ]
          ]
        ]
      },
      "id": "1_1_2_00000000000000000005",
      "properties": {
        "landcover": 2
      }
    },
    {
      "type": "Feature",
      "geometry": {
        "type": "Polygon",
        "coordinates": [
          [
            [
              120.40218909668683,
              23.960786381094263
            ],
            [
              120.40596563960071,
              23.949805141670222
            ],
            [
              120.4142054342509,
              23.95278584209357
            ],
            [
              120.40562236204343,
              23.966276706876766
            ],
            [
              120.40218909668683,
              23.960786381094263
            ]
          ]
        ]
      },
      "id": "1_1_2_00000000000000000006",
      "properties": {
        "landcover": 2
      }
    },
    {
      "type": "Feature",
      "geometry": {
        "type": "Polygon",
        "coordinates": [
          [
            [
              121.55279702623112,
              23.915203554392093
            ],
            [
              121.55374112485896,
              23.909240308288535
            ],
            [
              121.56352579165555,
              23.89668527260357
            ],
            [
              121.57528464233633,
              23.89692063533428
            ],
            [
              121.57837455776101,
              23.909318765838105
            ],
            [
              121.56344000385313,
              23.915046667165736
            ],
            [
              121.55279702623112,
              23.915203554392093
            ]
          ]
        ]
      },
      "id": "1_1_2_00000000000000000007",
      "properties": {
        "landcover": 2
      }
    },
    {
      "type": "Feature",
      "geometry": {
        "type": "Polygon",
        "coordinates": [
          [
            [
              121.55073703674758,
              23.939995151534383
            ],
            [
              121.55142367499978,
              23.93128725246286
            ],
            [
              121.56172336331157,
              23.930973445304055
            ],
            [
              121.56464163687302,
              23.938347724158362
            ],
            [
              121.55545771117976,
              23.940465773609386
            ],
            [
              121.55073703674758,
              23.939995151534383
            ]
          ]
        ]
      },
      "id": "1_1_2_00000000000000000008",
      "properties": {
        "landcover": 2
      }
    },
    {
      "type": "Feature",
      "geometry": {
        "type": "Polygon",
        "coordinates": [
          [
            [
              121.47921894097823,
              23.794816434592608
            ],
            [
              121.47149419452568,
              23.783192791966783
            ],
            [
              121.49363845781286,
              23.77910857097138
            ],
            [
              121.50067660936695,
              23.792931624291906
            ],
            [
              121.4814505192794,
              23.796858312824078
            ],
            [
              121.47921894097823,
              23.794816434592608
            ]
          ]
        ]
      },
      "id": "1_1_2_00000000000000000009",
      "properties": {
        "landcover": 2
      }
    },
    {
      "type": "Feature",
      "geometry": {
        "type": "Polygon",
        "coordinates": [
          [
            [
              121.48471213317168,
              23.819316983673744
            ],
            [
              121.50307987328806,
              23.822143638866716
            ],
            [
              121.50788633740363,
              23.837689331667725
            ],
            [
              121.49535507312251,
              23.845382988671762
            ],
            [
              121.48951858108126,
              23.83156547263281
            ],
            [
              121.48471213317168,
              23.819316983673744
            ]
          ]
        ]
      },
      "id": "1_1_2_0000000000000000000a",
      "properties": {
        "landcover": 2
      }
    },
    {
      "type": "Feature",
      "geometry": {
        "type": "Polygon",
        "coordinates": [
          [
            [
              121.20544207326057,
              23.073520921364164
            ],
            [
              121.21702922582979,
              23.074547481555815
            ],
            [
              121.21419681649678,
              23.093497444879198
            ],
            [
              121.20235218408901,
              23.09081301016039
            ],
            [
              121.20544207326057,
              23.073520921364164
            ]
          ]
        ]
      },
      "id": "1_1_2_0000000000000000000b",
      "properties": {
        "landcover": 2
      }
    },
    {
      "type": "Feature",
      "geometry": {
        "type": "Polygon",
        "coordinates": [
          [
            [
              121.1862159720131,
              23.068388167203423
            ],
            [
              121.191537461828,
              23.068309201151305
            ],
            [
              121.18964922702179,
              23.090497229553836
            ],
            [
              121.18286859912132,
              23.088760178939218
            ],
            [
              121.1862159720131,
              23.068388167203423
            ]
          ]
        ]
      },
      "id": "1_1_2_0000000000000000000c",
      "properties": {
        "landcover": 2
      }
    },
    {
      "type": "Feature",
      "geometry": {
        "type": "Polygon",
        "coordinates": [
          [
            [
              120.94317214157515,
              23.986551616378964
            ],
            [
              120.95261357907111,
              23.982944290737194
            ],
            [
              120.96892135854321,
              23.98106217106678
            ],
            [
              120.96960798337078,
              23.98529688783211
            ],
            [
              120.95896503759153,
              23.989845138377994
            ],
            [
              120.94815034981656,
              23.990942908263065
            ],
            [
              120.94317214157515,
              23.986551616378964
            ]
          ]
        ]
      },
      "id": "1_1_2_0000000000000000000d",
      "properties": {
        "landcover": 2
      }
    },
    {
      "type": "Feature",
      "geometry": {
        "type": "Polygon",
        "coordinates": [
          [
            [
              120.9675480972445,
              23.941688437208708
            ],
            [
              120.97286957335515,
              23.93996260858546
            ],
            [
              120.97527284019374,
              23.942629733209305
            ],
            [
              120.97458615986686,
              23.94576757191735
            ],
            [
              120.96874970172988,
              23.944826181949132
            ],
            [
              120.9675480972445,
              23.941688437208708
            ]
          ]
        ]
      },
      "id": "1_1_2_0000000000000000000e",
      "properties": {
        "landcover": 2
      }
    },
    {
      "type": "Feature",
      "geometry": {
        "type": "Polygon",
        "coordinates": [
          [
            [
              120.95913670822546,
              23.995804642944933
            ],
            [
              120.96188323032341,
              23.993138586102372
            ],
            [
              120.96840638737544,
              23.992511195850206
            ],
            [
              120.96840638737544,
              23.997529712912854
            ],
            [
              120.96102498166076,
              24.000038807018722
            ],
            [
              120.95913670822546,
              23.995804642944933
            ]
          ]
        ]
      },
      "id": "1_1_2_0000000000000000000f",
      "properties": {
        "landcover": 2
      }
    },
    {
      "type": "Feature",
      "geometry": {
        "type": "Polygon",
        "coordinates": [
          [
            [
              120.96256989492265,
              24.000352514187558
            ],
            [
              120.97321287509271,
              23.99674560698968
            ],
            [
              120.97252627064691,
              24.000666081159974
            ],
            [
              120.96462986544518,
              24.004116080622826
            ],
            [
              120.96256989492265,
              24.000352514187558
            ]
          ]
        ]
      },
      "id": "1_1_2_00000000000000000010",
      "properties": {
        "landcover": 2
      }
    },
    {
      "type": "Feature",
      "geometry": {
        "type": "Polygon",
        "coordinates": [
          [
            [
              120.72737351028424,
              24.0113127943726
            ],
            [
              120.7223095410686,
              24.01194000846748
            ],
            [
              120.71604384896274,
              24.0097447820618
            ],
            [
              120.72419776534741,
              24.00864710066445
            ],
            [
              120.73896067963503,
              24.00300180190277
            ],
            [
              120.73973313097271,
              24.00723582569527
            ],
            [
              120.73123590282212,
              24.010136787367284
            ],
            [
              120.72737351028424,
              24.0113127943726
            ]
          ]
        ]
      },
      "id": "1_2_00000000000000000000",
      "properties": {
        "landcover": 3
      }
    },
    {
      "type": "Feature",
      "geometry": {
        "type": "Polygon",
        "coordinates": [
          [
            [
              120.65695097549646,
              24.030755403234437
            ],
            [
              120.65772349456908,
              24.027462857933713
            ],
            [
              120.66175748867037,
              24.02456232879342
            ],
            [
              120.66381747941844,
              24.02660055707698
            ],
            [
              120.65738019234806,
              24.03240158958684
            ],
            [
              120.65695097549646,
              24.030755403234437
            ]
          ]
        ]
      },
      "id": "1_2_00000000000000000001",
      "properties": {
        "landcover": 3
      }
    },
    {
      "type": "Feature",
      "geometry": {
        "type": "Polygon",
        "coordinates": [
          [
            [
              120.74628667210128,
              23.99147748738347
            ],
            [
              120.74868998918808,
              23.98771351323918
            ],
            [
              120.75349648407953,
              23.983635742692854
            ],
            [
              120.7569297187716,
              23.986458785462982
            ],
            [
              120.75006324228569,
              23.99461408929882
            ],
            [
              120.74628667210128,
              23.99147748738347
            ]
          ]
        ]
      },
      "id": "1_2_00000000000000000002",
      "properties": {
        "landcover": 3
      }
    },
    {
      "type": "Feature",
      "geometry": {
        "type": "Polygon",
        "coordinates": [
          [
            [
              120.5955679998965,
              23.80015904333521
            ],
            [
              120.60878593810352,
              23.793562225606223
            ],
            [
              120.61445073441075,
              23.79089201846446
            ],
            [
              120.5955679998965,
              23.80015904333521
            ]
          ]
        ]
      },
      "id": "1_2_00000000000000000003",
      "properties": {
        "landcover": 3
      }
    },
    {
      "type": "Feature",
      "geometry": {
        "type": "Polygon",
        "coordinates": [
          [
            [
              120.59943040929079,
              23.794190529407867
            ],
            [
              120.60071785288339,
              23.7932480759083
            ],
            [
              120.61960060804198,
              23.788221662370425
            ],
            [
              120.61736897803644,
              23.7902637217031
            ],
            [
              120.60998751628254,
              23.7928554309247
            ],
            [
              120.60260615001461,
              23.79717476328274
            ],
            [
              120.59591129483084,
              23.80047314117977
            ],
            [
              120.5974562861059,
              23.795604154599985
            ],
            [
              120.59943040929079,
              23.794190529407867
            ]
          ]
        ]
      },
      "id": "1_2_00000000000000000004",
      "properties": {
        "landcover": 3
      }
    },
    {
      "type": "Feature",
      "geometry": {
        "type": "Polygon",
        "coordinates": [
          [
            [
              120.57342368639495,
              23.788378765122648
            ],
            [
              120.57994683224416,
              23.78727919017737
            ],
            [
              120.58441005650513,
              23.786022624246055
            ],
            [
              120.58415251810108,
              23.790263674198446
            ],
            [
              120.57788687686241,
              23.793719260597708
            ],
            [
              120.57342368639495,
              23.788378765122648
            ]
          ]
        ]
      },
      "id": "1_2_00000000000000000005",
      "properties": {
        "landcover": 3
      }
    },
    {
      "type": "Feature",
      "geometry": {
        "type": "Polygon",
        "coordinates": [
          [
            [
              120.65193567288676,
              23.786018747510802
            ],
            [
              120.65511140795462,
              23.78366245749331
            ],
            [
              120.66566859031033,
              23.785076226057388
            ],
            [
              120.67047512085242,
              23.78688264205767
            ],
            [
              120.67330756725453,
              23.79143788904595
            ],
            [
              120.66807187858689,
              23.788531940301763
            ],
            [
              120.66343698697268,
              23.787746558983322
            ],
            [
              120.65193567288676,
              23.786018747510802
            ]
          ]
        ]
      },
      "id": "1_2_00000000000000000006",
      "properties": {
        "landcover": 3
      }
    },
    {
      "type": "Feature",
      "geometry": {
        "type": "Polygon",
        "coordinates": [
          [
            [
              120.65458845756844,
              23.75128193252651
            ],
            [
              120.65561847205132,
              23.747982320648923
            ],
            [
              120.65785003876063,
              23.750967698452353
            ],
            [
              120.65819333969816,
              23.758509372623443
            ],
            [
              120.65561847205132,
              23.759609135145862
            ],
            [
              120.65458845756844,
              23.75128193252651
            ]
          ]
        ]
      },
      "id": "1_2_00000000000000000007",
      "properties": {
        "landcover": 3
      }
    },
    {
      "type": "Feature",
      "geometry": {
        "type": "Polygon",
        "coordinates": [
          [
            [
              120.98607784962917,
              23.35697338774576
            ],
            [
              120.9834171239765,
              23.355003422681072
            ],
            [
              120.98204376408829,
              23.35137864256947
            ],
            [
              120.98564872404253,
              23.34932983943475
            ],
            [
              120.98830940072486,
              23.352087832323676
            ],
            [
              120.98925357681937,
              23.349645079256725
            ],
            [
              120.99062685504174,
              23.34625655975545
            ],
            [
              120.9932018301002,
              23.349329792685467
            ],
            [
              120.99011188847189,
              23.35326983409685
            ],
            [
              120.98376039587527,
              23.35366389448414
            ],
            [
              120.98933943451432,
              23.35642174509287
            ],
            [
              120.99431758895469,
              23.355476235936507
            ],
            [
              120.99165686913535,
              23.358628107263826
            ],
            [
              120.9864212015185,
              23.3581553272461
            ],
            [
              120.98607784962917,
              23.35697338774576
            ]
          ]
        ]
      },
      "id": "1_2_00000000000000000008",
      "properties": {
        "landcover": 3
      }
    },
    {
      "type": "Feature",
      "geometry": {
        "type": "Polygon",
        "coordinates": [
          [
            [
              121.03023184344295,
              23.312140995177597
            ],
            [
              121.03177683653533,
              23.309618593385498
            ],
            [
              121.03280676261336,
              23.302839468965292
            ],
            [
              121.02765695682056,
              23.29479866487942
            ],
            [
              121.03023184344295,
              23.288964793871852
            ],
            [
              121.03572501372352,
              23.291645289631344
            ],
            [
              121.04482314169073,
              23.294956284949063
            ],
            [
              121.04173320756598,
              23.299528593973598
            ],
            [
              121.03864328170634,
              23.306780872443316
            ],
            [
              121.03383676738709,
              23.3151363116147
            ],
            [
              121.03023184344295,
              23.312140995177597
            ]
          ]
        ]
      },
      "id": "1_2_00000000000000000009",
      "properties": {
        "landcover": 3
      }
    },
    {
      "type": "Feature",
      "geometry": {
        "type": "Polygon",
        "coordinates": [
          [
            [
              120.94869272232671,
              23.25206382444589
            ],
            [
              120.94731940768128,
              23.252063840768255
            ],
            [
              120.95315593169201,
              23.251275226645575
            ],
            [
              120.96139562957232,
              23.24780533468918
            ],
            [
              120.9565891121416,
              23.259634097562575
            ],
            [
              120.96637387999569,
              23.25711068388362
            ],
            [
              120.96551557550606,
              23.260107157768484
            ],
            [
              120.96345561999632,
              23.266573140018963
            ],
            [
              120.95967903176182,
              23.270042541921843
            ],
            [
              120.95590250131191,
              23.262945938962424
            ],
            [
              120.95178266740506,
              23.260895697091232
            ],
            [
              120.94869272232671,
              23.25206382444589
            ]
          ]
        ]
      },
      "id": "1_2_0000000000000000000a",
      "properties": {
        "landcover": 3
      }
    },
    {
      "type": "Feature",
      "geometry": {
        "type": "Polygon",
        "coordinates": [
          [
            [
              120.83042275249609,
              23.193301812473887
            ],
            [
              120.83196764973081,
              23.19267063389926
            ],
            [
              120.83608757313945,
              23.193617395060397
            ],
            [
              120.8350575613825,
              23.19740423398133
            ],
            [
              120.83042275249609,
              23.195510824429896
            ],
            [
              120.83042275249609,
              23.193301812473887
            ]
          ]
        ]
      },
      "id": "1_2_0000000000000000000b",
      "properties": {
        "landcover": 3
      }
    },
    {
      "type": "Feature",
      "geometry": {
        "type": "Polygon",
        "coordinates": [
          [
            [
              120.84020744643873,
              23.174681542168425
            ],
            [
              120.84055077029676,
              23.170736246653096
            ],
            [
              120.84467058193948,
              23.17310343447124
            ],
            [
              120.84655887049608,
              23.17657525244826
            ],
            [
              120.843812299214,
              23.176575204847072
            ],
            [
              120.84037910848735,
              23.176101764290024
            ],
            [
              120.84020744643873,
              23.174681542168425
            ]
          ]
        ]
      },
      "id": "1_2_0000000000000000000c",
      "properties": {
        "landcover": 3
      }
    },
    {
      "type": "Feature",
      "geometry": {
        "type": "Polygon",
        "coordinates": [
          [
            [
              120.98114145703967,
              23.148640323749905
            ],
            [
              120.98749291177828,
              23.150218777837665
            ],
            [
              120.98629123029572,
              23.15227067848236
            ],
            [
              120.98079809020234,
              23.15148146239098
            ],
            [
              120.98114145703967,
              23.148640323749905
            ]
          ]
        ]
      },
      "id": "1_2_0000000000000000000d",
      "properties": {
        "landcover": 3
      }
    },
    {
      "type": "Feature",
      "geometry": {
        "type": "Polygon",
        "coordinates": [
          [
            [
              120.85703024089345,
              23.1555851347876
            ],
            [
              120.86029177106484,
              23.156847826421014
            ],
            [
              120.86012013679579,
              23.159846578661583
            ],
            [
              120.85548530762813,
              23.16205614078098
            ],
            [
              120.85703024089345,
              23.1555851347876
            ]
          ]
        ]
      },
      "id": "1_2_0000000000000000000e",
      "properties": {
        "landcover": 3
      }
    },
    {
      "type": "Feature",
      "geometry": {
        "type": "Polygon",
        "coordinates": [
          [
            [
              120.89668402964769,
              23.1475354776773
            ],
            [
              120.89651235870505,
              23.15337553013277
            ],
            [
              120.8947957236275,
              23.152586344743977
            ],
            [
              120.89668402964769,
              23.1475354776773
            ]
          ]
        ]
      },
      "id": "1_2_0000000000000000000f",
      "properties": {
        "landcover": 3
      }
    },
    {
      "type": "Feature",
      "geometry": {
        "type": "Polygon",
        "coordinates": [
          [
            [
              120.82778983634624,
              23.070465321513336
            ],
            [
              120.82693152367972,
              23.066990784918072
            ],
            [
              120.83620122968613,
              23.07109709517831
            ],
            [
              120.83671614423122,
              23.074887371579912
            ],
            [
              120.83482788003042,
              23.079625155572543
            ],
            [
              120.82864814303989,
              23.0726763656821
            ],
            [
              120.82778983634624,
              23.070465321513336
            ]
          ]
        ]
      },
      "id": "1_2_00000000000000000010",
      "properties": {
        "landcover": 3
      }
    },
    {
      "type": "Feature",
      "geometry": {
        "type": "Polygon",
        "coordinates": [
          [
            [
              120.89696930067662,
              23.074887427015195
            ],
            [
              120.8976559804396,
              23.07362394256596
            ],
            [
              120.9024624557415,
              23.070465371909386
            ],
            [
              120.90589574948014,
              23.070781257666525
            ],
            [
              120.90280578069334,
              23.07457152239189
            ],
            [
              120.89834265635042,
              23.077414168199628
            ],
            [
              120.89696930067662,
              23.074887427015195
            ]
          ]
        ]
      },
      "id": "1_2_00000000000000000011",
      "properties": {
        "landcover": 3
      }
    },
    {
      "type": "Feature",
      "geometry": {
        "type": "Polygon",
        "coordinates": [
          [
            [
              121.10045907560841,
              24.970473751019746
            ],
            [
              121.10329148195393,
              24.970921168064326
            ],
            [
              121.10307690938582,
              24.97321649137314
            ],
            [
              121.09998698679816,
              24.97241892260529
            ],
            [
              121.10045907560841,
              24.970473751019746
            ]
          ]
        ]
      },
      "id": "2_00000000000000000000",
      "properties": {
        "landcover": 4
      }
    },
    {
      "type": "Feature",
      "geometry": {
        "type": "Polygon",
        "coordinates": [
          [
            [
              121.1148588572588,
              24.968664224535143
            ],
            [
              121.11696168959583,
              24.968236239113462
            ],
            [
              121.11700461664613,
              24.96928670200783
            ],
            [
              121.1152880471882,
              24.969597871996257
            ],
            [
              121.1148588572588,
              24.968664224535143
            ]
          ]
        ]
      },
      "id": "2_00000000000000000001",
      "properties": {
        "landcover": 4
      }
    },
    {
      "type": "Feature",
      "geometry": {
        "type": "Polygon",
        "coordinates": [
          [
            [
              121.16864315625578,
              24.955302767359395
            ],
            [
              121.17087472458623,
              24.955380623008452
            ],
            [
              121.1702739285705,
              24.95670351485973
            ],
            [
              121.16795653158763,
              24.956859102450895
            ],
            [
              121.16864315625578,
              24.955302767359395
            ]
          ]
        ]
      },
      "id": "2_00000000000000000002",
      "properties": {
        "landcover": 4
      }
    },
    {
      "type": "Feature",
      "geometry": {
        "type": "Polygon",
        "coordinates": [
          [
            [
              121.20838275726447,
              24.95397990713587
            ],
            [
              121.21190185481458,
              24.953123885059238
            ],
            [
              121.21173019607701,
              24.957715053785638
            ],
            [
              121.208897747291,
              24.95787075163282
            ],
            [
              121.20838275726447,
              24.95397990713587
            ]
          ]
        ]
      },
      "id": "2_00000000000000000003",
      "properties": {
        "landcover": 4
      }
    },
    {
      "type": "Feature",
      "geometry": {
        "type": "Polygon",
        "coordinates": [
          [
            [
              121.23942282232498,
              24.97214234336736
            ],
            [
              121.24302771964075,
              24.972220207107345
            ],
            [
              121.24328527047415,
              24.978833552034168
            ],
            [
              121.24002370441617,
              24.97797770110802
            ],
            [
              121.23942282232498,
              24.97214234336736
            ]
          ]
        ]
      },
      "id": "2_00000000000000000004",
      "properties": {
        "landcover": 4
      }
    },
    {
      "type": "Feature",
      "geometry": {
        "type": "Polygon",
        "coordinates": [
          [
            [
              121.25943089913311,
              24.965125194646255
            ],
            [
              121.2622633585077,
              24.96512522742453
            ],
            [
              121.26209168565816,
              24.970104968893935
            ],
            [
              121.25883011593692,
              24.969638167112915
            ],
            [
              121.25943089913311,
              24.965125194646255
            ]
          ]
        ]
      },
      "id": "2_00000000000000000005",
      "properties": {
        "landcover": 4
      }
    },
    {
      "type": "Feature",
      "geometry": {
        "type": "Polygon",
        "coordinates": [
          [
            [
              121.32260985820382,
              24.97086937015948
            ],
            [
              121.32604306855534,
              24.970091335496257
            ],
            [
              121.32698718810144,
              24.974137233709488
            ],
            [
              121.32303899318849,
              24.97437063288632
            ],
            [
              121.32260985820382,
              24.97086937015948
            ]
          ]
        ]
      },
      "id": "2_00000000000000000006",
      "properties": {
        "landcover": 4
      }
    },
    {
      "type": "Feature",
      "geometry": {
        "type": "Polygon",
        "coordinates": [
          [
            [
              121.30846314542167,
              24.990584039986224
            ],
            [
              121.31163884636372,
              24.991828742228453
            ],
            [
              121.31172473389992,
              24.99711862676119
            ],
            [
              121.3088064426421,
              24.99696302793933
            ],
            [
              121.30846314542167,
              24.990584039986224
            ]
          ]
        ]
      },
      "id": "2_00000000000000000007",
      "properties": {
        "landcover": 4
      }
    },
    {
      "type": "Feature",
      "geometry": {
        "type": "Polygon",
        "coordinates": [
          [
            [
              121.34983747703788,
              25.05011610097278
            ],
            [
              121.35309904578233,
              25.049494035551866
            ],
            [
              121.35275579134277,
              25.057580546135302
            ],
            [
              121.34983747703788,
              25.057580559289832
            ],
            [
              121.34983747703788,
              25.05011610097278
            ]
          ]
        ]
      },
      "id": "2_00000000000000000008",
      "properties": {
        "landcover": 4
      }
    },
    {
      "type": "Feature",
      "geometry": {
        "type": "Polygon",
        "coordinates": [
          [
            [
              121.4318916252741,
              25.044984007706354
            ],
            [
              121.43463820368605,
              25.040629303100946
            ],
            [
              121.43892979805983,
              25.052448761712544
            ],
            [
              121.43412324699922,
              25.051982233291323
            ],
            [
              121.4318916252741,
              25.044984007706354
            ]
          ]
        ]
      },
      "id": "2_00000000000000000009",
      "properties": {
        "landcover": 4
      }
    },
    {
      "type": "Feature",
      "geometry": {
        "type": "Polygon",
        "coordinates": [
          [
            [
              121.46106218459505,
              25.008298336108584
            ],
            [
              121.46655537084577,
              25.01203188782397
            ],
            [
              121.46672700418355,
              25.01903207918341
            ],
            [
              121.46106218459505,
              25.018565393187124
            ],
            [
              121.46106218459505,
              25.008298336108584
            ]
          ]
        ]
      },
      "id": "2_0000000000000000000a",
      "properties": {
        "landcover": 4
      }
    },
    {
      "type": "Feature",
      "geometry": {
        "type": "Polygon",
        "coordinates": [
          [
            [
              121.51084397432788,
              25.002075475239437
            ],
            [
              121.51977035964703,
              25.002386673083326
            ],
            [
              121.5175388284396,
              25.010165137739225
            ],
            [
              121.51273224574415,
              25.009542868723205
            ],
            [
              121.51084397432788,
              25.002075475239437
            ]
          ]
        ]
      },
      "id": "2_0000000000000000000b",
      "properties": {
        "landcover": 4
      }
    },
    {
      "type": "Feature",
      "geometry": {
        "type": "Polygon",
        "coordinates": [
          [
            [
              121.5293179160749,
              25.054457819845894
            ],
            [
              121.53223614559863,
              25.05570186633438
            ],
            [
              121.53154947929946,
              25.0639435066726
            ],
            [
              121.52897457469217,
              25.06347706119344
            ],
            [
              121.5293179160749,
              25.054457819845894
            ]
          ]
        ]
      },
      "id": "2_0000000000000000000c",
      "properties": {
        "landcover": 4
      }
    },
    {
      "type": "Feature",
      "geometry": {
        "type": "Polygon",
        "coordinates": [
          [
            [
              121.46511970767766,
              25.081758175098223
            ],
            [
              121.46958293147388,
              25.083001960509648
            ],
            [
              121.46958293147388,
              25.08922072712257
            ],
            [
              121.46391807785952,
              25.090153462951623
            ],
            [
              121.46511970767766,
              25.081758175098223
            ]
          ]
        ]
      },
      "id": "2_0000000000000000000d",
      "properties": {
        "landcover": 4
      }
    },
    {
      "type": "Feature",
      "geometry": {
        "type": "Polygon",
        "coordinates": [
          [
            [
              121.49395881095529,
              25.06434381969274
            ],
            [
              121.49945199639508,
              25.06652071993263
            ],
            [
              121.49979533899904,
              25.07211839135197
            ],
            [
              121.49601877536846,
              25.071807407074296
            ],
            [
              121.49395881095529,
              25.06434381969274
            ]
          ]
        ]
      },
      "id": "2_0000000000000000000e",
      "properties": {
        "landcover": 4
      }
    },
    {
      "type": "Feature",
      "geometry": {
        "type": "Polygon",
        "coordinates": [
          [
            [
              120.47210162267187,
              23.968468167056532
            ],
            [
              120.47244498674804,
              23.954506943025173
            ],
            [
              120.48737951164124,
              23.955761934478616
            ],
            [
              120.4861778293958,
              23.965174042936482
            ],
            [
              120.47210162267187,
              23.968468167056532
            ]
          ]
        ]
      },
      "id": "2_0000000000000000000f",
      "properties": {
        "landcover": 4
      }
    },
    {
      "type": "Feature",
      "geometry": {
        "type": "Polygon",
        "coordinates": [
          [
            [
              121.17771877845,
              23.073994676221165
            ],
            [
              121.17763288067627,
              23.072178561905215
            ],
            [
              121.18046528988212,
              23.071783700703055
            ],
            [
              121.17986454235451,
              23.08054857540054
            ],
            [
              121.17737544913302,
              23.076126717487192
            ],
            [
              121.17771877845,
              23.073994676221165
            ]
          ]
        ]
      },
      "id": "2_00000000000000000010",
      "properties": {
        "landcover": 4
      }
    },
    {
      "type": "Feature",
      "geometry": {
        "type": "Polygon",
        "coordinates": [
          [
            [
              121.17660297638817,
              23.100681983385222
            ],
            [
              121.17531545239616,
              23.097287120708007
            ],
            [
              121.17952121923933,
              23.098629238931313
            ],
            [
              121.17943532276897,
              23.103918846081704
            ],
            [
              121.17557297578763,
              23.103050357375597
            ],
            [
              121.17660297638817,
              23.100681983385222
            ]
          ]
        ]
      },
      "id": "2_00000000000000000011",
      "properties": {
        "landcover": 4
      }
    },
    {
      "type": "Feature",
      "geometry": {
        "type": "Polygon",
        "coordinates": [
          [
            [
              121.21235943551557,
              23.119702509401524
            ],
            [
              121.21330359415107,
              23.11630811178504
            ],
            [
              121.21733767341836,
              23.12033396665192
            ],
            [
              121.22111419121644,
              23.124280779345845
            ],
            [
              121.22008422789317,
              23.12570161488581
            ],
            [
              121.2145910551784,
              23.121833746536794
            ],
            [
              121.21235943551557,
              23.119702509401524
            ]
          ]
        ]
      },
      "id": "2_00000000000000000012",
      "properties": {
        "landcover": 4
      }
    },
    {
      "type": "Feature",
      "geometry": {
        "type": "Polygon",
        "coordinates": [
          [
            [
              121.21905425560038,
              23.096019177361022
            ],
            [
              121.22325995572373,
              23.104308835905126
            ],
            [
              121.22059925435185,
              23.10509826310284
            ],
            [
              121.21905425560038,
              23.096019177361022
            ]
          ]
        ]
      },
      "id": "2_00000000000000000013",
      "properties": {
        "landcover": 4
      }
    },
    {
      "type": "Feature",
      "geometry": {
        "type": "Polygon",
        "coordinates": [
          [
            [
              120.95982330079563,
              23.968357254179775
            ],
            [
              120.96703312025531,
              23.961141514682925
            ],
            [
              120.97201131476463,
              23.963494486698117
            ],
            [
              120.97733277033696,
              23.966945475811652
            ],
            [
              120.97492954428134,
              23.97321976033679
            ],
            [
              120.96033830833505,
              23.97259231393783
            ],
            [
              120.95982330079563,
              23.968357254179775
            ]
          ]
        ]
      },
      "id": "2_00000000000000000014",
      "properties": {
        "landcover": 4
      }
    },
    {
      "type": "Feature",
      "geometry": {
        "type": "Polygon",
        "coordinates": [
          [
            [
              120.98196761659976,
              23.942629803410252
            ],
            [
              120.98677417990066,
              23.935255718481923
            ],
            [
              120.99209568801247,
              23.931646994441788
            ],
            [
              120.99364064338178,
              23.937295342219812
            ],
            [
              120.98763242158797,
              23.943571096829405
            ],
            [
              120.98196761659976,
              23.942629803410252
            ]
          ]
        ]
      },
      "id": "2_00000000000000000015",
      "properties": {
        "landcover": 4
      }
    }
  ]
}